[{"OBJECT_NAME":"STARLINK-36461","OBJECT_ID":"2026-002M","EPOCH":"2026-03-09T01:06:06.803712","MEAN_MOTION":15.27602407,"ECCENTRICITY":0.00015641,"INCLINATION":43.0033,"RA_OF_ASC_NODE":328.6278,"ARG_OF_PERICENTER":266.7783,"MEAN_ANOMALY":93.289,"EPHEMERIS_TYPE":0,"CLASSIFICATION_TYPE":"U","NORAD_CAT_ID":67316,"ELEMENT_SET_NO":999,"REV_AT_EPOCH":1114,"BSTAR":0.0016544228,"MEAN_MOTION_DOT":0.00045577,"MEAN_MOTION_DDOT":0},{"OBJECT_NAME":"KUIPER-00274","OBJECT_ID":"2026-030AE","EPOCH":"2026-03-09T22:00:01.999584","MEAN_MOTION":15.29896925,"ECCENTRICITY":0.00182929,"INCLINATION":51.8831,"RA_OF_ASC_NODE":218.6923,"ARG_OF_PERICENTER":71.2033,"MEAN_ANOMALY":115.2248,"EPHEMERIS_TYPE":0,"CLASSIFICATION_TYPE":"U","NORAD_CAT_ID":67792,"ELEMENT_SET_NO":999,"REV_AT_EPOCH":410,"BSTAR":0.0017989756,"MEAN_MOTION_DOT":0.00053102,"MEAN_MOTION_DDOT":0}]
